[{"OBJECT_NAME":"STARLINK-30929","OBJECT_ID":"2023-178N","EPOCH":"2026-03-09T02:16:37.117056","MEAN_MOTION":15.3019066,"ECCENTRICITY":9.844e-5,"INCLINATION":53.1622,"RA_OF_ASC_NODE":4.1069,"ARG_OF_PERICENTER":85.6529,"MEAN_ANOMALY":274.4584,"EPHEMERIS_TYPE":0,"CLASSIFICATION_TYPE":"U","NORAD_CAT_ID":58386,"ELEMENT_SET_NO":999,"REV_AT_EPOCH":12977,"BSTAR":6.4589605e-5,"MEAN_MOTION_DOT":1.554e-5,"MEAN_MOTION_DDOT":0},{"OBJECT_NAME":"COSMOS 2588","OBJECT_ID":"2025-109A","EPOCH":"2026-03-09T19:28:59.107008","MEAN_MOTION":15.29122656,"ECCENTRICITY":0.0005019,"INCLINATION":72.9704,"RA_OF_ASC_NODE":73.5401,"ARG_OF_PERICENTER":308.678,"MEAN_ANOMALY":51.3966,"EPHEMERIS_TYPE":0,"CLASSIFICATION_TYPE":"U","NORAD_CAT_ID":64095,"ELEMENT_SET_NO":999,"REV_AT_EPOCH":4442,"BSTAR":0.00032611,"MEAN_MOTION_DOT":9.169e-5,"MEAN_MOTION_DDOT":0}]
